{
    "links": {
        "self": "http://www.neowsapp.com/rest/v1/neo/3172334?api_key=iIulBulltgU6a56xZRHN4H3l9WmuAYTsLGpBGhQ2"
    },
    "id": "3172334",
    "neo_reference_id": "3172334",
    "name": "(2004 BZ18)",
    "designation": "2004 BZ18",
    "nasa_jpl_url": "http://ssd.jpl.nasa.gov/sbdb.cgi?sstr=3172334",
    "absolute_magnitude_h": 21.2,
    "estimated_diameter": {
        "kilometers": {
            "estimated_diameter_min": 0.1529519353,
            "estimated_diameter_max": 0.3420109247
        },
        "meters": {
            "estimated_diameter_min": 152.9519353442,
            "estimated_diameter_max": 342.0109247198
        },
        "miles": {
            "estimated_diameter_min": 0.095039897,
            "estimated_diameter_max": 0.2125156703
        },
        "feet": {
            "estimated_diameter_min": 501.8108275547,
            "estimated_diameter_max": 1122.0831222578
        }
    },
    "is_potentially_hazardous_asteroid": false,
    "close_approach_data": [
        {
            "close_approach_date": "2003-09-27",
            "close_approach_date_full": "2003-Sep-27 09:47",
            "epoch_date_close_approach": 1064656020000,
            "relative_velocity": {
                "kilometers_per_second": "10.2117530187",
                "kilometers_per_hour": "36762.3108674824",
                "miles_per_hour": "22842.6703276309"
            },
            "miss_distance": {
                "astronomical": "0.4153883797",
                "lunar": "161.5860797033",
                "kilometers": "62141216.825871239",
                "miles": "38612761.6380475382"
            },
            "orbiting_body": "Earth"
        },
        {
            "close_approach_date": "2004-01-10",
            "close_approach_date_full": "2004-Jan-10 10:21",
            "epoch_date_close_approach": 1073730060000,
            "relative_velocity": {
                "kilometers_per_second": "13.202866867",
                "kilometers_per_hour": "47530.3207210459",
                "miles_per_hour": "29533.4928946966"
            },
            "miss_distance": {
                "astronomical": "0.2356904099",
                "lunar": "91.6835694511",
                "kilometers": "35258783.300466913",
                "miles": "21908792.0187248794"
            },
            "orbiting_body": "Earth"
        }
    ],
    "orbital_data": {
        "orbit_id": "10",
        "orbit_determination_date": "2017-04-06 09:13:16",
        "first_observation_date": "2004-01-19",
        "last_observation_date": "2004-02-15",
        "data_arc_in_days": 27,
        "observations_used": 30,
        "orbit_uncertainty": "7",
        "minimum_orbit_intersection": ".228699",
        "jupiter_tisserand_invariant": "3.783",
        "epoch_osculation": "2459000.5",
        "eccentricity": ".4374503339400321",
        "semi_major_axis": "1.865947373608796",
        "inclination": "22.61370270787753",
        "ascending_node_longitude": "308.1396739564254",
        "orbital_period": "930.9953530477427",
        "perihelion_distance": "1.049688071909102",
        "perihelion_argument": "112.7632181738731",
        "aphelion_distance": "2.682206675308489",
        "perihelion_time": "2458552.812884773352",
        "mean_anomaly": "173.1129601817983",
        "mean_motion": ".3866829182567775",
        "equinox": "J2000",
        "orbit_class": {
            "orbit_class_type": "AMO",
            "orbit_class_description": "Near-Earth asteroid orbits similar to that of 1221 Amor",
            "orbit_class_range": "1.017 AU < q (perihelion) < 1.3 AU"
        }
    },
    "is_sentry_object": false
}